GLOBALSTAR M063 [+]     
1 26081U 00008A   23364.98221589 -.00000070  00000+0  18325-3 0  9996
2 26081  51.9963  78.4482 0004182  19.1056  32.8560 11.86148780 94249
GLOBALSTAR M062 [-]     
1 26082U 00008B   23364.81940523 -.00000066  00000+0  22920-3 0  9996
2 26082  51.9825 227.1432 0008152  55.5612  25.1224 12.43424485430146
GLOBALSTAR M060 [-]     
1 26083U 00008C   23364.69101888 -.00000190  00000+0 -98280-3 0  9997
2 26083  52.0017 111.9108 0004402 119.3888  27.8387 12.17620292 87254
GLOBALSTAR M065 [+]     
1 31571U 07020A   23364.92804556 -.00000078  00000+0  14090-3 0  9995
2 31571  51.9909  52.3098 0010001 201.8411 213.8198 12.61961287765955
GLOBALSTAR M069 [+]     
1 31573U 07020C   23364.43283300 -.00000076  00000+0  15758-3 0  9991
2 31573  51.9974   9.8641 0000268 337.4002 188.8150 12.62263155767014
GLOBALSTAR M072 [+]     
1 31574U 07020D   23364.48907865 -.00000086  00000+0  96878-4 0  9990
2 31574  52.0084 105.4777 0001105 134.9324 305.5372 12.62269622765297
GLOBALSTAR M071 [P]     
1 31576U 07020F   23364.20226741 -.00000078  00000+0  14125-3 0  9994
2 31576  52.0087  15.5984 0000517  21.1240  56.3931 12.62263973428171
